SHIJIAN-16 (SJ-16)      
1 39358U 13057A   26129.83161288  .00001075  00000+0  10730-3 0  9997
2 39358  74.9726  69.3210 0016693 319.2227  40.7711 14.92511439680628
SL-4 R/B                
1 39679U 14021B   26129.03596607  .00012554  00000+0  26582-3 0  9990
2 39679  51.6072  42.4358 0092157 323.7024  35.7732 15.41057511665574
ALOS-2                  
1 39766U 14029A   26129.85896545  .00000784  00000+0  11186-3 0  9995
2 39766  97.9209 227.5705 0001620  88.5663 271.5734 14.79464409645914
YAOGAN-29               
1 41038U 15069A   26129.85549534  .00000257  00000+0  38241-4 0  9995
2 41038  98.0059 158.4241 0002585 116.3321 243.8158 14.83054096564940
ASTRO-H (HITOMI)        
1 41337U 16012A   26129.83763163  .00002029  00000+0  11492-3 0  9997
2 41337  31.0004 321.8309 0009603 228.2460 131.7358 15.10353410561481
HXMT (HUIYAN)           
1 42758U 17034A   26129.84640861  .00003398  00000+0  17287-3 0  9998
2 42758  43.0161  36.4728 0032989 262.3896  97.3204 15.18127804491837
SAOCOM 1A               
1 43641U 18076A   26129.79004999  .00000035  00000+0  10976-4 0  9991
2 43641  97.8893 317.0956 0001531  83.0848 277.0539 14.82144604410413
H-2A R/B                
1 43682U 18084L   26129.70688888  .00013793  00000+0  30446-3 0  9999
2 43682  98.8635   0.2308 0024210 168.1557 192.0261 15.43737242415187
SAOCOM 1B               
1 46265U 20059A   26129.82131167  .00001080  00000+0  14223-3 0  9991
2 46265  97.8896 316.2203 0001606  83.0062 277.1334 14.82162379307809
CSS (TIANHE)            
1 48274U 21035A   26129.64226727  .00017976  00000+0  20263-3 0  9997
2 48274  41.4637 196.4787 0004689 275.1899  84.8405 15.62092922287141
COSMOS 2550             
1 48865U 21056A   26129.81238916  .00004010  00000+0  12748-3 0  9992
2 48865  67.1430 215.9873 0008512 267.6884  92.3295 15.33868182272833
CZ-2C R/B               
1 52794U 22058K   26129.81971395  .00031591  00000+0  39029-3 0  9991
2 52794  50.1880   2.7243 0036590 103.6177 256.8875 15.58993763219657
CZ-2C R/B               
1 54039U 22132E   26129.76566889  .00034728  00000+0  31912-3 0  9998
2 54039  97.2933 135.2012 0014414 210.7915 149.2502 15.67497800199929
