[
    {
        "OBJECT_NAME": "SHIJIAN-16 (SJ-16)",
        "OBJECT_ID": "2013-057A",
        "EPOCH": "2026-05-09T19:57:31.352832",
        "MEAN_MOTION": 14.92511439,
        "ECCENTRICITY": 0.0016693,
        "INCLINATION": 74.9726,
        "RA_OF_ASC_NODE": 69.321,
        "ARG_OF_PERICENTER": 319.2227,
        "MEAN_ANOMALY": 40.7711,
        "EPHEMERIS_TYPE": 0,
        "CLASSIFICATION_TYPE": "U",
        "NORAD_CAT_ID": 39358,
        "ELEMENT_SET_NO": 999,
        "REV_AT_EPOCH": 68062,
        "BSTAR": 0.0001073,
        "MEAN_MOTION_DOT": 1.075e-05,
        "MEAN_MOTION_DDOT": 0
    },
    {
        "OBJECT_NAME": "SL-4 R/B",
        "OBJECT_ID": "2014-021B",
        "EPOCH": "2026-05-09T00:51:47.468448",
        "MEAN_MOTION": 15.41057511,
        "ECCENTRICITY": 0.00921572,
        "INCLINATION": 51.6072,
        "RA_OF_ASC_NODE": 42.4358,
        "ARG_OF_PERICENTER": 323.7024,
        "MEAN_ANOMALY": 35.7732,
        "EPHEMERIS_TYPE": 0,
        "CLASSIFICATION_TYPE": "U",
        "NORAD_CAT_ID": 39679,
        "ELEMENT_SET_NO": 999,
        "REV_AT_EPOCH": 66557,
        "BSTAR": 0.00026582109,
        "MEAN_MOTION_DOT": 0.00012554,
        "MEAN_MOTION_DDOT": 0
    },
    {
        "OBJECT_NAME": "ALOS-2",
        "OBJECT_ID": "2014-029A",
        "EPOCH": "2026-05-09T20:36:54.614880",
        "MEAN_MOTION": 14.79464409,
        "ECCENTRICITY": 0.000162,
        "INCLINATION": 97.9209,
        "RA_OF_ASC_NODE": 227.5705,
        "ARG_OF_PERICENTER": 88.5663,
        "MEAN_ANOMALY": 271.5734,
        "EPHEMERIS_TYPE": 0,
        "CLASSIFICATION_TYPE": "U",
        "NORAD_CAT_ID": 39766,
        "ELEMENT_SET_NO": 999,
        "REV_AT_EPOCH": 64591,
        "BSTAR": 0.00011186,
        "MEAN_MOTION_DOT": 7.84e-06,
        "MEAN_MOTION_DDOT": 0
    },
    {
        "OBJECT_NAME": "YAOGAN-29",
        "OBJECT_ID": "2015-069A",
        "EPOCH": "2026-05-09T20:31:54.797376",
        "MEAN_MOTION": 14.83054096,
        "ECCENTRICITY": 0.0002585,
        "INCLINATION": 98.0059,
        "RA_OF_ASC_NODE": 158.4241,
        "ARG_OF_PERICENTER": 116.3321,
        "MEAN_ANOMALY": 243.8158,
        "EPHEMERIS_TYPE": 0,
        "CLASSIFICATION_TYPE": "U",
        "NORAD_CAT_ID": 41038,
        "ELEMENT_SET_NO": 999,
        "REV_AT_EPOCH": 56494,
        "BSTAR": 3.8241e-05,
        "MEAN_MOTION_DOT": 2.57e-06,
        "MEAN_MOTION_DDOT": 0
    },
    {
        "OBJECT_NAME": "ASTRO-H (HITOMI)",
        "OBJECT_ID": "2016-012A",
        "EPOCH": "2026-05-09T20:06:11.372832",
        "MEAN_MOTION": 15.1035341,
        "ECCENTRICITY": 0.0009603,
        "INCLINATION": 31.0004,
        "RA_OF_ASC_NODE": 321.8309,
        "ARG_OF_PERICENTER": 228.246,
        "MEAN_ANOMALY": 131.7358,
        "EPHEMERIS_TYPE": 0,
        "CLASSIFICATION_TYPE": "U",
        "NORAD_CAT_ID": 41337,
        "ELEMENT_SET_NO": 999,
        "REV_AT_EPOCH": 56148,
        "BSTAR": 0.00011492,
        "MEAN_MOTION_DOT": 2.029e-05,
        "MEAN_MOTION_DDOT": 0
    },
    {
        "OBJECT_NAME": "HXMT (HUIYAN)",
        "OBJECT_ID": "2017-034A",
        "EPOCH": "2026-05-09T20:18:49.703904",
        "MEAN_MOTION": 15.18127804,
        "ECCENTRICITY": 0.0032989,
        "INCLINATION": 43.0161,
        "RA_OF_ASC_NODE": 36.4728,
        "ARG_OF_PERICENTER": 262.3896,
        "MEAN_ANOMALY": 97.3204,
        "EPHEMERIS_TYPE": 0,
        "CLASSIFICATION_TYPE": "U",
        "NORAD_CAT_ID": 42758,
        "ELEMENT_SET_NO": 999,
        "REV_AT_EPOCH": 49183,
        "BSTAR": 0.00017287,
        "MEAN_MOTION_DOT": 3.398e-05,
        "MEAN_MOTION_DDOT": 0
    },
    {
        "OBJECT_NAME": "SAOCOM 1A",
        "OBJECT_ID": "2018-076A",
        "EPOCH": "2026-05-09T18:57:40.319136",
        "MEAN_MOTION": 14.82144604,
        "ECCENTRICITY": 0.0001531,
        "INCLINATION": 97.8893,
        "RA_OF_ASC_NODE": 317.0956,
        "ARG_OF_PERICENTER": 83.0848,
        "MEAN_ANOMALY": 277.0539,
        "EPHEMERIS_TYPE": 0,
        "CLASSIFICATION_TYPE": "U",
        "NORAD_CAT_ID": 43641,
        "ELEMENT_SET_NO": 999,
        "REV_AT_EPOCH": 41041,
        "BSTAR": 1.0976e-05,
        "MEAN_MOTION_DOT": 3.5e-07,
        "MEAN_MOTION_DDOT": 0
    },
    {
        "OBJECT_NAME": "H-2A R/B",
        "OBJECT_ID": "2018-084L",
        "EPOCH": "2026-05-09T16:57:55.199232",
        "MEAN_MOTION": 15.43737242,
        "ECCENTRICITY": 0.002421,
        "INCLINATION": 98.8635,
        "RA_OF_ASC_NODE": 0.2308,
        "ARG_OF_PERICENTER": 168.1557,
        "MEAN_ANOMALY": 192.0261,
        "EPHEMERIS_TYPE": 0,
        "CLASSIFICATION_TYPE": "U",
        "NORAD_CAT_ID": 43682,
        "ELEMENT_SET_NO": 999,
        "REV_AT_EPOCH": 41518,
        "BSTAR": 0.00030446,
        "MEAN_MOTION_DOT": 0.00013793,
        "MEAN_MOTION_DDOT": 0
    },
    {
        "OBJECT_NAME": "SAOCOM 1B",
        "OBJECT_ID": "2020-059A",
        "EPOCH": "2026-05-09T19:42:41.328288",
        "MEAN_MOTION": 14.82162379,
        "ECCENTRICITY": 0.0001606,
        "INCLINATION": 97.8896,
        "RA_OF_ASC_NODE": 316.2203,
        "ARG_OF_PERICENTER": 83.0062,
        "MEAN_ANOMALY": 277.1334,
        "EPHEMERIS_TYPE": 0,
        "CLASSIFICATION_TYPE": "U",
        "NORAD_CAT_ID": 46265,
        "ELEMENT_SET_NO": 999,
        "REV_AT_EPOCH": 30780,
        "BSTAR": 0.00014223,
        "MEAN_MOTION_DOT": 1.08e-05,
        "MEAN_MOTION_DDOT": 0
    },
    {
        "OBJECT_NAME": "CSS (TIANHE)",
        "OBJECT_ID": "2021-035A",
        "EPOCH": "2026-05-09T15:24:51.892128",
        "MEAN_MOTION": 15.62092922,
        "ECCENTRICITY": 0.0004689,
        "INCLINATION": 41.4637,
        "RA_OF_ASC_NODE": 196.4787,
        "ARG_OF_PERICENTER": 275.1899,
        "MEAN_ANOMALY": 84.8405,
        "EPHEMERIS_TYPE": 0,
        "CLASSIFICATION_TYPE": "U",
        "NORAD_CAT_ID": 48274,
        "ELEMENT_SET_NO": 999,
        "REV_AT_EPOCH": 28714,
        "BSTAR": 0.00020263,
        "MEAN_MOTION_DOT": 0.00017976,
        "MEAN_MOTION_DDOT": 0
    },
    {
        "OBJECT_NAME": "COSMOS 2550",
        "OBJECT_ID": "2021-056A",
        "EPOCH": "2026-05-09T19:29:50.423424",
        "MEAN_MOTION": 15.33868182,
        "ECCENTRICITY": 0.0008512,
        "INCLINATION": 67.143,
        "RA_OF_ASC_NODE": 215.9873,
        "ARG_OF_PERICENTER": 267.6884,
        "MEAN_ANOMALY": 92.3295,
        "EPHEMERIS_TYPE": 0,
        "CLASSIFICATION_TYPE": "U",
        "NORAD_CAT_ID": 48865,
        "ELEMENT_SET_NO": 999,
        "REV_AT_EPOCH": 27283,
        "BSTAR": 0.00012748,
        "MEAN_MOTION_DOT": 4.01e-05,
        "MEAN_MOTION_DDOT": 0
    },
    {
        "OBJECT_NAME": "CZ-2C R/B",
        "OBJECT_ID": "2022-058K",
        "EPOCH": "2026-05-09T19:40:23.285280",
        "MEAN_MOTION": 15.58993763,
        "ECCENTRICITY": 0.003659,
        "INCLINATION": 50.188,
        "RA_OF_ASC_NODE": 2.7243,
        "ARG_OF_PERICENTER": 103.6177,
        "MEAN_ANOMALY": 256.8875,
        "EPHEMERIS_TYPE": 0,
        "CLASSIFICATION_TYPE": "U",
        "NORAD_CAT_ID": 52794,
        "ELEMENT_SET_NO": 999,
        "REV_AT_EPOCH": 21965,
        "BSTAR": 0.00039029,
        "MEAN_MOTION_DOT": 0.00031591,
        "MEAN_MOTION_DDOT": 0
    },
    {
        "OBJECT_NAME": "CZ-2C R/B",
        "OBJECT_ID": "2022-132E",
        "EPOCH": "2026-05-09T18:22:33.792096",
        "MEAN_MOTION": 15.674978,
        "ECCENTRICITY": 0.0014414,
        "INCLINATION": 97.2933,
        "RA_OF_ASC_NODE": 135.2012,
        "ARG_OF_PERICENTER": 210.7915,
        "MEAN_ANOMALY": 149.2502,
        "EPHEMERIS_TYPE": 0,
        "CLASSIFICATION_TYPE": "U",
        "NORAD_CAT_ID": 54039,
        "ELEMENT_SET_NO": 999,
        "REV_AT_EPOCH": 19992,
        "BSTAR": 0.00031912,
        "MEAN_MOTION_DOT": 0.00034728,
        "MEAN_MOTION_DDOT": 0
    }
]